GLOBALSTAR M094         
1 39074U 13005C   25320.68522984 -.00000107  00000+0 -16017-4 0  9996
2 39074  51.9960  77.8026 0000646 129.6530 230.4394 12.62264972591637
GLOBALSTAR M096         
1 39075U 13005D   25320.77754438 -.00000083  00000+0  11499-3 0  9998
2 39075  52.0047 126.1559 0000887 113.8138 246.2822 12.62268950590563
GLOBALSTAR M078         
1 39076U 13005E   25320.67247118 -.00000154  00000+0 -28018-3 0  9995
2 39076  51.9866 210.7836 0001280 119.4748 240.6246 12.62272021589173
GLOBALSTAR M095         
1 39077U 13005F   25320.69856779 -.00000078  00000+0  14608-3 0  9991
2 39077  52.0067 208.0056 0000770 102.8693 257.2259 12.62266364589037
GLOBALSTAR M087         
1 52888U 22064A   25320.39473378 -.00000083  00000+0  11635-3 0  9991
2 52888  52.0017 350.2878 0000268 142.0242 218.0643 12.62260473164268
